ONEWEB-0240             
1 48785U 21045U   23275.05688943 -.00007688  00000+0 -20459-1 0  9997
2 48785  87.8934  96.1188 0001856  55.1307 304.9998 13.15590766115470
ONEWEB-0246             
1 48786U 21045V   23274.74841274  .00000121  00000+0  28691-3 0  9992
2 48786  87.8938  96.1821 0002175  80.2782 279.8594 13.15551764114184
ONEWEB-0210             
1 48787U 21045W   23274.87517637  .00000235  00000+0  59058-3 0  9997
2 48787  87.8935  96.1654 0002544  90.9988 269.1433 13.15550898114240
ONEWEB-0214             
1 48788U 21045X   23274.88576863  .00000342  00000+0  87465-3 0  9997
2 48788  87.8935  96.1522 0002517  94.5676 265.5742 13.15549252114211
ONEWEB-0221             
1 48789U 21045Y   23274.89208821  .00000185  00000+0  45862-3 0  9995
2 48789  87.8939  96.1617 0001928  79.2234 280.9114 13.15551493114300
ONEWEB-0213             
1 48790U 21045Z   23274.87942718  .00000003  00000+0 -26119-4 0  9990
2 48790  87.8936  96.1818 0002098  79.6830 280.4537 13.15545840114366
ONEWEB-0212             
1 48791U 21045AA  23275.01252020 -.00000011  00000+0 -62912-4 0  9999
2 48791  87.8937  96.1359 0001507  90.2681 269.8622 13.15550571115516
ONEWEB-0227             
1 48792U 21045AB  23275.00616248 -.00000206  00000+0 -58094-3 0  9996
2 48792  87.8936  96.1516 0001745  80.5844 279.5483 13.15550828115459
